      2.10          N: GNSS NAV DATA                        RINEX VERSION / TYPE
fic2rin                                 02/15/2024 00:18:03 PGM / RUN BY / DATE
                                                            END OF HEADER
8  24  2 14  1 59 44.0 -.166921876371D-03 -.193267624127D-11  .000000000000D+00
     .700000000000D+01 -.363437500000D+02  .494734893408D-08 -.125977333368D+01
    -.203400850296D-05  .934086274356D-02  .399537384510D-05  .515358490562D+04
     .266384000000D+06  .132247805595D-06  .282112416897D+01 -.137835741043D-06
     .954863560689D+00  .294500000000D+03  .319767220205D+00 -.846106672311D-08
    -.157863718515D-09  .100000000000D+01  .230100000000D+04  .000000000000D+00
     .240000000000D+01  .000000000000D+00  .512227416039D-08  .700000000000D+01
     .259200000000D+06  .400000000000D+01
13 24  2 14 22  0  0.0  .625567510724D-03  .352429196937D-11  .000000000000D+00
     .340000000000D+02 -.436562500000D+02  .445947146917D-08  .266922701488D+01
    -.229105353355D-05  .779158249497D-02  .689737498760D-05  .515365122795D+04
     .338400000000D+06  .689178705215D-07 -.148836022886D+00 -.838190317154D-07
     .971313065076D+00  .251656250000D+03  .938945317927D+00 -.792747306822D-08
    -.130362572982D-09  .100000000000D+01  .230100000000D+04  .000000000000D+00
     .240000000000D+01  .000000000000D+00 -.111758708954D-07  .340000000000D+02
     .331200000000D+06  .400000000000D+01
17 24  2 14 22  0  0.0  .716974027455D-03 -.125055521494D-11  .000000000000D+00
     .110000000000D+03 -.184687500000D+02  .460983487527D-08  .301188614250D+01
    -.769272446632D-06  .135596533073D-01  .378675758839D-05  .515367019653D+04
     .338400000000D+06  .210478901863D-06  .291358276255D+01  .949949026108D-07
     .970628831958D+00  .309750000000D+03 -.133695294020D+01 -.814926802115D-08
    -.268939773850D-09  .100000000000D+01  .230100000000D+04  .000000000000D+00
     .240000000000D+01  .000000000000D+00 -.111758708954D-07  .110000000000D+03
     .331200000000D+06  .400000000000D+01
11 24  2 14 22  0  0.0 -.575931742787D-03 -.128466126625D-10  .000000000000D+00
     .820000000000D+02 -.638437500000D+02  .417124517768D-08  .217009992608D+01
    -.330246984959D-05  .124787958339D-02  .959448516369D-05  .515366964722D+04
     .338400000000D+06 -.558793544769D-08 -.233583048913D+01 -.223517417908D-07
     .966252174590D+00  .198281250000D+03 -.246540715893D+01 -.797247494272D-08
    -.129648257513D-09  .100000000000D+01  .230100000000D+04  .000000000000D+00
     .240000000000D+01  .000000000000D+00 -.838190317154D-08  .850000000000D+03
     .331200000000D+06  .400000000000D+01
25 24  2 14 22  0  0.0  .488593708724D-03  .113686837722D-11  .000000000000D+00
     .720000000000D+02  .835937500000D+02  .499306512406D-08 -.685695632513D+00
     .457838177681D-05  .118161023129D-01  .773370265961D-05  .515361217117D+04
     .338400000000D+06 -.260770320892D-07  .178889689499D+01  .180676579475D-06
     .950686006471D+00  .229937500000D+03  .107644382664D+01 -.847678166341D-08
     .226438003480D-09  .100000000000D+01  .230100000000D+04  .000000000000D+00
     .240000000000D+01  .000000000000D+00  .558793544769D-08  .720000000000D+02
     .331200000000D+06  .400000000000D+01
28 24  2 14 22  0  0.0 -.131210312247D-03 -.127329258248D-10  .000000000000D+00
     .990000000000D+02 -.231250000000D+01  .428767859902D-08 -.135435829917D+01
    -.409781932831D-07  .659941229969D-03  .110547989607D-04  .515359869957D+04
     .338400000000D+06 -.242143869400D-07  .724377734932D+00  .223517417908D-07
     .961603240372D+00  .165843750000D+03  .173685780191D+01 -.789032866386D-08
    -.133576992589D-09  .100000000000D+01  .230100000000D+04  .000000000000D+00
     .240000000000D+01  .000000000000D+00 -.931322574615D-08  .355000000000D+03
     .331200000000D+06  .400000000000D+01
18 24  2 14 22  0  0.0 -.555659644306D-03 -.829913915368D-11  .000000000000D+00
     .500000000000D+02 -.473125000000D+02  .409017037201D-08  .936876500141D+00
    -.241212546825D-05  .384727190249D-02  .912882387638D-05  .515363015556D+04
     .338400000000D+06  .149011611938D-07 -.236564567830D+01  .558793544769D-08
     .974618194931D+00  .208812500000D+03 -.302032770061D+01 -.794390232399D-08
    -.150363406097D-09  .100000000000D+01  .230100000000D+04  .000000000000D+00
     .240000000000D+01  .000000000000D+00 -.838190317154D-08  .306000000000D+03
     .331200000000D+06  .400000000000D+01
23 24  2 14 22  0  0.0  .156277325004D-03  .807176547823D-11  .000000000000D+00
     .940000000000D+02  .606250000000D+01  .418874590665D-08 -.162507347826D+00
     .197440385818D-06  .397551502101D-02  .769272446632D-05  .515370603752D+04
     .338400000000D+06  .689178705215D-07 -.136513138151D+01 -.223517417908D-07
     .977444055268D+00  .241906250000D+03 -.296579007073D+01 -.800461913880D-08
     .289654922433D-09  .100000000000D+01  .230100000000D+04  .000000000000D+00
     .240000000000D+01  .000000000000D+00 -.838190317154D-08  .606000000000D+03
     .331200000000D+06  .400000000000D+01
14 24  2 14 22  0  0.0  .325846020132D-03  .100044417195D-10  .000000000000D+00
     .239000000000D+03  .102687500000D+03  .500663711796D-08 -.562454932597D+00
     .529550015926D-05  .398307526484D-02  .735931098461D-05  .515368945312D+04
     .338400000000D+06  .108033418655D-06  .183147331752D+01  .931322574615D-08
     .946148322784D+00  .229125000000D+03 -.296556457361D+01 -.842606526515D-08
     .242510101519D-09  .100000000000D+01  .230100000000D+04  .000000000000D+00
     .240000000000D+01  .000000000000D+00 -.791624188423D-08  .100700000000D+04
     .331200000000D+06  .400000000000D+01
2  24  2 15  0  0  0.0 -.485340133309D-03  .591171556152D-11  .000000000000D+00
     .630000000000D+02 -.383437500000D+02  .424839124826D-08 -.194448386495D+01
    -.169873237610D-05  .162060861476D-01  .928342342377D-05  .515371740341D+04
     .345600000000D+06 -.502914190292D-07 -.246723782243D+01  .404193997383D-06
     .967714046683D+00  .202093750000D+03 -.124137770791D+01 -.784782689349D-08
    -.105361531588D-09  .100000000000D+01  .230100000000D+04  .000000000000D+00
     .240000000000D+01  .000000000000D+00 -.176951289177D-07  .630000000000D+02
     .338400000000D+06  .400000000000D+01
1  24  2 15  0  0  0.0  .169577542692D-03  .147792889038D-11  .000000000000D+00
     .101000000000D+03 -.420937500000D+02  .377158567311D-08  .170200122588D+01
    -.230595469475D-05  .127212447114D-01  .100564211607D-04  .515400863266D+04
     .345600000000D+06 -.296160578728D-06 -.236284094250D+01 -.143423676491D-06
     .990720006116D+00  .204156250000D+03  .998018251329D+00 -.773353641855D-08
    -.600024993449D-10  .100000000000D+01  .230100000000D+04  .000000000000D+00
     .485000000000D+01  .630000000000D+02  .512227416039D-08  .101000000000D+03
     .338400000000D+06  .400000000000D+01
5  24  2 15  0  0  0.0 -.161843374372D-03 -.147792889038D-11  .000000000000D+00
     .210000000000D+02  .625000000000D+00  .430339353933D-08 -.193466672643D+01
     .782310962677D-07  .567420513835D-02  .848248600960D-05  .515356026077D+04
     .345600000000D+06  .122934579849D-06 -.138412360283D+01  .409781932831D-07
     .969607118268D+00  .219500000000D+03  .123173418411D+01 -.790961518151D-08
     .404302555110D-09  .100000000000D+01  .230100000000D+04  .000000000000D+00
     .240000000000D+01  .000000000000D+00 -.111758708954D-07  .210000000000D+02
     .338400000000D+06  .400000000000D+01
3  24  2 15  0  0  0.0  .193598680198D-03  .243289832724D-10  .000000000000D+00
     .360000000000D+02  .145000000000D+02  .414124392800D-08  .799972505243D+00
     .696629285812D-06  .510646181647D-02  .788643956184D-05  .515377758217D+04
     .345600000000D+06 -.109896063805D-06 -.133410934344D+01  .316649675369D-07
     .982621954331D+00  .238687500000D+03  .106796246545D+01 -.797640367780D-08
     .292512184307D-09  .100000000000D+01  .230100000000D+04  .000000000000D+00
     .240000000000D+01  .000000000000D+00  .186264514923D-08  .360000000000D+02
     .338400000000D+06  .400000000000D+01
6  24  2 15  0  0  0.0  .406811479479D-03 -.148929757415D-10  .000000000000D+00
     .900000000000D+02 -.530937500000D+02  .373729853063D-08  .206917505253D+01
    -.253878533840D-05  .315076916013D-02  .100154429674D-04  .515356992149D+04
     .345600000000D+06  .894069671631D-07 -.237123275555D+01 -.186264514923D-08
     .989833827398D+00  .198093750000D+03 -.771338078218D+00 -.772853621027D-08
    -.181793286706D-09  .100000000000D+01  .230100000000D+04  .000000000000D+00
     .240000000000D+01  .000000000000D+00  .372529029846D-08  .900000000000D+02
     .338400000000D+06  .400000000000D+01
4  24  2 15  0  0  0.0  .291857868433D-03  .943600753089D-11  .000000000000D+00
     .159000000000D+03 -.432500000000D+02  .466662295501D-08 -.253397101914D+01
    -.229105353355D-05  .283855432644D-02  .645592808723D-05  .515357933426D+04
     .345600000000D+06 -.409781932831D-07 -.254482204137D+00 -.335276126862D-07
     .964590798507D+00  .258312500000D+03 -.297492745998D+01 -.813283876538D-08
    -.151434879299D-09  .100000000000D+01  .230100000000D+04  .000000000000D+00
     .240000000000D+01  .000000000000D+00 -.465661287308D-08  .415000000000D+03
     .338400000000D+06  .400000000000D+01
